     3.03           NAVIGATION DATA     MIXED               RINEX VERSION / TYPE
gfzrnx-1.11-7352    FILE MERGE          20230527 001204 UTC PGM / RUN BY / DATE 
    18                  GPS                                 LEAP SECONDS        
                                                            END OF HEADER
G25 2023 05 26 18 00 00 4.455540329218e-04 2.614797267597e-12 0.000000000000e+00
     4.000000000000e+01 1.915625000000e+01 4.907704425588e-09 3.417295572877e-01
     7.729977369308e-07 1.108628942166e-02 6.899237632751e-06 5.153727500916e+03
     4.968000000000e+05-1.080334186554e-07 2.676482108394e-01 9.126961231232e-08
     9.534714112714e-01 2.462812500000e+02 1.051310984740e+00-8.356776664720e-09
    -1.296482575132e-10 1.000000000000e+00 2.263000000000e+03 0.000000000000e+00
     2.000000000000e+00 0.000000000000e+00 5.587935447693e-09 4.000000000000e+01
     4.954270000000e+05 4.000000000000e+00 0.000000000000e+00 0.000000000000e+00
G25 2023 05 26 20 00 00 4.455731250346e-04 2.614797267597e-12 0.000000000000e+00
     4.500000000000e+01 2.206250000000e+01 4.835915721015e-09 1.391919150951e+00
     1.026317477226e-06 1.108599093277e-02 6.524845957756e-06 5.153726507187e+03
     5.040000000000e+05-1.937150955200e-07 2.675879400775e-01 3.911554813385e-08
     9.534705525385e-01 2.486562500000e+02 1.051272261298e+00-8.317132156224e-09
    -1.028614274485e-10 1.000000000000e+00 2.263000000000e+03 0.000000000000e+00
     2.000000000000e+00 0.000000000000e+00 5.587935447693e-09 4.500000000000e+01
     4.968680000000e+05 4.000000000000e+00 0.000000000000e+00 0.000000000000e+00
G25 2023 05 26 22 00 00 4.455917514861e-04 2.614797267597e-12 0.000000000000e+00
     4.700000000000e+01 2.368750000000e+01 4.638050336270e-09 2.442081668927e+00
     1.123175024986e-06 1.108594960533e-02 6.522983312607e-06 5.153726287842e+03
     5.112000000000e+05 9.126961231232e-08 2.675289435172e-01-2.048909664154e-07
     9.534716614304e-01 2.484375000000e+02 1.051260303406e+00-7.968903365383e-09
    -3.321566928024e-11 1.000000000000e+00 2.263000000000e+03 0.000000000000e+00
     2.000000000000e+00 0.000000000000e+00 5.587935447693e-09 4.700000000000e+01
     5.040750000000e+05 4.000000000000e+00 0.000000000000e+00 0.000000000000e+00
G26 2023 05 25 22 00 00 2.402770332992e-04-5.684341886081e-13 0.000000000000e+00
     3.800000000000e+01 1.696875000000e+01 5.158071997260e-09 1.694246955455e+00
     8.828938007355e-07 7.897908566520e-03 6.934627890587e-06 5.153690523148e+03
     4.248000000000e+05-9.126961231232e-08 2.126124193150e-01 7.450580596924e-08
     9.342674413376e-01 2.323125000000e+02 4.640250394997e-01-8.333561411997e-09
    -2.642967233051e-10 1.000000000000e+00 2.263000000000e+03 0.000000000000e+00
     2.000000000000e+00 0.000000000000e+00 6.984919309616e-09 3.800000000000e+01
     4.209430000000e+05 4.000000000000e+00 0.000000000000e+00 0.000000000000e+00
G26 2023 05 26 06 00 00 2.402607351542e-04-5.684341886081e-13 0.000000000000e+00
     6.200000000000e+01 1.621875000000e+01 5.295220567191e-09-3.881033040719e-01
     7.543712854385e-07 7.898465264589e-03 6.766989827156e-06 5.153690912247e+03
     4.536000000000e+05 3.911554813385e-08 2.123765925318e-01 1.303851604462e-07
     9.342591056303e-01 2.334687500000e+02 4.638908401727e-01-8.459280934434e-09
    -4.321608583773e-10 1.000000000000e+00 2.263000000000e+03 0.000000000000e+00
     2.000000000000e+00 0.000000000000e+00 6.984919309616e-09 6.200000000000e+01
     4.509430000000e+05 4.000000000000e+00 0.000000000000e+00 0.000000000000e+00
G26 2023 05 26 07 59 44 2.402560785413e-04-5.684341886081e-13 0.000000000000e+00
     5.500000000000e+01 1.659375000000e+01 5.414868408147e-09 6.597416810263e-01
     1.102685928345e-06 7.898529642262e-03 6.601214408875e-06 5.153691020966e+03
     4.607840000000e+05 2.421438694000e-08 2.123153840394e-01 5.774199962616e-08
     9.342558769701e-01 2.340312500000e+02 4.638885989822e-01-8.514997540969e-09
    -4.107313943255e-10 1.000000000000e+00 2.263000000000e+03 0.000000000000e+00
     2.000000000000e+00 0.000000000000e+00 6.984919309616e-09 5.500000000000e+01
     4.606570000000e+05 4.000000000000e+00 0.000000000000e+00 0.000000000000e+00
G26 2023 05 26 08 00 00 2.402565442026e-04-5.684341886081e-13 0.000000000000e+00
     6.300000000000e+01 1.659375000000e+01 5.414868408147e-09 6.620754157214e-01
     1.102685928345e-06 7.898529409431e-03 6.601214408875e-06 5.153691017151e+03
     4.608000000000e+05 2.421438694000e-08 2.123152596914e-01 5.774199962616e-08
     9.342558813589e-01 2.340312500000e+02 4.638885960563e-01-8.514997540969e-09
    -4.107313943255e-10 1.000000000000e+00 2.263000000000e+03 0.000000000000e+00
     2.000000000000e+00 0.000000000000e+00 6.984919309616e-09 6.300000000000e+01
     4.536780000000e+05 4.000000000000e+00 0.000000000000e+00 0.000000000000e+00
G26 2023 05 26 09 59 44 2.402518875897e-04-5.684341886081e-13 0.000000000000e+00
     6.100000000000e+01 1.806250000000e+01 5.492014478733e-09 1.709979392991e+00
     1.106411218643e-06 7.898401468992e-03 6.785616278648e-06 5.153690086365e+03
     4.679840000000e+05-1.210719347000e-07 2.122534002004e-01 2.048909664154e-07
     9.342533958611e-01 2.372812500000e+02 4.638286368959e-01-8.469995666460e-09
    -2.639395655709e-10 1.000000000000e+00 2.263000000000e+03 0.000000000000e+00
     2.000000000000e+00 0.000000000000e+00 6.984919309616e-09 6.100000000000e+01
     4.608710000000e+05 4.000000000000e+00 0.000000000000e+00 0.000000000000e+00
G26 2023 05 26 12 00 00 2.402476966381e-04-5.684341886081e-13 0.000000000000e+00
     6.800000000000e+01 2.159375000000e+01 5.410939673071e-09 2.762548029385e+00
     1.067295670509e-06 7.898673764430e-03 6.778165698051e-06 5.153689104080e+03
     4.752000000000e+05-7.823109626770e-08 2.121924433298e-01-9.685754776001e-08
     9.342529350419e-01 2.356875000000e+02 4.637722209231e-01-8.216413675181e-09
    -1.589351917173e-10 1.000000000000e+00 2.263000000000e+03 0.000000000000e+00
     2.000000000000e+00 0.000000000000e+00 6.984919309616e-09 6.800000000000e+01
     4.680740000000e+05 4.000000000000e+00 0.000000000000e+00 0.000000000000e+00
G26 2023 05 26 22 00 00 2.402258105576e-04-5.684341886081e-13 0.000000000000e+00
     9.400000000000e+01 2.293750000000e+01 5.215931550200e-09 1.730403189370e+00
     1.177191734314e-06 7.899427204393e-03 6.308779120445e-06 5.153690999985e+03
     5.112000000000e+05-8.940696716309e-08 2.118907925477e-01 8.940696716309e-08
     9.342489222576e-01 2.443125000000e+02 4.636136157337e-01-8.417493479533e-09
    -1.417916204758e-10 1.000000000000e+00 2.263000000000e+03 0.000000000000e+00
     2.000000000000e+00 0.000000000000e+00 6.984919309616e-09 9.400000000000e+01
     5.065090000000e+05 4.000000000000e+00 0.000000000000e+00 0.000000000000e+00
G27 2023 05 26 00 00 00 2.980558201671e-05-7.958078640513e-12 0.000000000000e+00
     9.500000000000e+01 5.837500000000e+01 4.174816755018e-09 9.391027059686e-01
     2.969056367874e-06 1.157490338665e-02 8.247792720795e-06 5.153670913696e+03
     4.320000000000e+05-1.620501279831e-07 1.323946289163e+00 8.754432201385e-08
     9.674651223942e-01 2.241250000000e+02 7.387279035995e-01-8.008905031613e-09
    -1.828647599084e-10 1.000000000000e+00 2.263000000000e+03 0.000000000000e+00
     2.828427076340e+00 0.000000000000e+00 1.862645149231e-09 9.500000000000e+01
     4.293740000000e+05 4.000000000000e+00 0.000000000000e+00 0.000000000000e+00
G27 2023 05 26 02 00 00 2.974830567837e-05-7.958078640513e-12 0.000000000000e+00
     9.800000000000e+01 6.356250000000e+01 4.122314568091e-09 1.989328906231e+00
     3.209337592125e-06 1.157525356393e-02 8.430331945419e-06 5.153669986725e+03
     4.392000000000e+05-2.402812242508e-07 1.323888321034e+00-1.154839992523e-07
     9.674643221780e-01 2.194375000000e+02 7.386817836441e-01-7.887114244252e-09
    -1.107188976008e-10 1.000000000000e+00 2.263000000000e+03 0.000000000000e+00
     2.828427076340e+00 0.000000000000e+00 1.862645149231e-09 9.800000000000e+01
     4.320800000000e+05 4.000000000000e+00 0.000000000000e+00 0.000000000000e+00
G27 2023 05 26 10 00 00 2.952245995402e-05-7.844391802792e-12 0.000000000000e+00
     2.400000000000e+01 4.287500000000e+01 4.393040130612e-09-9.323442438801e-02
     2.333894371986e-06 1.157465775032e-02 7.614493370056e-06 5.153667516708e+03
     4.680000000000e+05 2.980232238770e-08 1.323664950998e+00 1.639127731323e-07
     9.674584280811e-01 2.332500000000e+02 7.387793661317e-01-8.155339702633e-09
    -3.121558596874e-10 1.000000000000e+00 2.263000000000e+03 0.000000000000e+00
     2.000000000000e+00 0.000000000000e+00 1.862645149231e-09 2.400000000000e+01
     4.616890000000e+05 4.000000000000e+00 0.000000000000e+00 0.000000000000e+00
G27 2023 05 26 12 00 00 2.946518361568e-05-7.844391802792e-12 0.000000000000e+00
     2.500000000000e+01 4.340625000000e+01 4.392325815143e-09 9.568726592328e-01
     2.551823854446e-06 1.157544669695e-02 8.324161171913e-06 5.153669601440e+03
     4.752000000000e+05-1.117587089539e-07 1.323607036997e+00 1.303851604462e-07
     9.674559396574e-01 2.228750000000e+02 7.388556982712e-01-8.096408676491e-09
    -4.135886561991e-10 1.000000000000e+00 2.263000000000e+03 0.000000000000e+00
     2.000000000000e+00 0.000000000000e+00 1.862645149231e-09 2.500000000000e+01
     4.680750000000e+05 4.000000000000e+00 0.000000000000e+00 0.000000000000e+00
